AUTCUBE 2               
1 43681U 18084K   26068.48152820  .00005282  00000+0  33524-3 0  9991
2 43681  98.0799 269.3640 0009685  28.2406 331.9345 15.09319394401889
STARLINK-4150           
1 53134U 22083C   26068.60842911 -.00001686  00000+0 -87874-4 0  9994
2 53134  53.2177 174.4821 0001347 106.7574 253.3566 15.08830336201207
